ONEWEB-0210             
1 48787U 21045W   25042.43018453 -.00000097  00000+0 -29098-3 0  9995
2 48787  87.9114 356.9027 0001922 106.1789 253.9552 13.15550281179799
ONEWEB-0214             
1 48788U 21045X   25042.59180886 -.00000065  00000+0 -20622-3 0  9992
2 48788  87.9114 356.8598 0001682  99.8808 260.2512 13.15550213179786
ONEWEB-0221             
1 48789U 21045Y   25042.59814873 -.00000044  00000+0 -15070-3 0  9991
2 48789  87.9117 356.8832 0002015  85.1152 275.0209 13.15549802179871
ONEWEB-0213             
1 48790U 21045Z   25042.35886819 -.00000356  00000+0 -98091-3 0  9996
2 48790  87.9115 356.9399 0001952  90.5979 269.5375 13.15548237179903
ONEWEB-0212             
1 48791U 21045AA  25042.56406567  .00000104  00000+0  24127-3 0  9996
2 48791  87.9120 356.8869 0001842  80.1991 279.9347 13.15551038179927
ONEWEB-0227             
1 48792U 21045AB  25042.56328451  .00000123  00000+0  29376-3 0  9994
2 48792  87.9117 356.9002 0001929  84.0220 276.1130 13.15550010179870
ONEWEB-0226             
1 48793U 21045AC  25042.55694826  .00000150  00000+0  36551-3 0  9999
2 48793  87.9116 356.9064 0001891  95.6345 264.5001 13.15550089179843
ONEWEB-0224             
1 48794U 21045AD  25042.59654896 -.00000014  00000+0 -72349-4 0  9994
2 48794  87.9119 356.9294 0002836  77.3109 282.8338 13.15550256179771
